#aP2004  4  5  0  0  0.00000000      96 ORBIT IGb00 HLM  IGS
## 1265  86400.00000000   900.00000000 53100 0.0000000000000
+   28     1  3  4  5  6  7  8  9 10 11 13 14 15 16 17 18 19
+         20 21 22 24 25 26 27 28 29 30 31  0  0  0  0  0  0
+          0  0  0  0  0  0  0  0  0  0  0  0  0  0  0  0  0
+          0  0  0  0  0  0  0  0  0  0  0  0  0  0  0  0  0
+          0  0  0  0  0  0  0  0  0  0  0  0  0  0  0  0  0
++         3  3  3  3  3  3  3  3  3  3  4  3  3  3  3  3  5
++         3  4  4  3  3  3  3  4  4  3  3  0  0  0  0  0  0
++         0  0  0  0  0  0  0  0  0  0  0  0  0  0  0  0  0
++         0  0  0  0  0  0  0  0  0  0  0  0  0  0  0  0  0
++         0  0  0  0  0  0  0  0  0  0  0  0  0  0  0  0  0
%c cc cc ccc ccc cccc cccc cccc cccc ccccc ccccc ccccc ccccc
%c cc cc ccc ccc cccc cccc cccc cccc ccccc ccccc ccccc ccccc
%f  0.0000000  0.000000000  0.00000000000  0.000000000000000
%f  0.0000000  0.000000000  0.00000000000  0.000000000000000
%i    0    0    0    0      0      0      0      0         0
%i    0    0    0    0      0      0      0      0         0
/* FINAL ORBIT COMBINATION FROM WEIGHTED AVERAGE OF:        
/* cod emr esa gfz jpl mit ngs sio                          
/* REFERENCED TO IGS TIME AND TO WEIGHTED MEAN POLE:        
/* CLK ANT Z-OFFSET (M): II/IIA 1.023; IIR 0.000            
*  2004  4  5 12  0  0.00000000
P  1  13365.056774  -7488.769308 -21528.603476    337.860096
P  3  23491.899821   9665.023764   8047.728790     99.320375
P  4  -6903.117629 -20258.287352 -15503.857764   -106.852701
P  5 -23018.015046  12713.201309  -3158.681185     24.367892
P  6  -5886.912314  15026.328421 -20888.821700     15.728276
P  7 -14942.602395 -20142.893182   9397.720518    583.501797
P  8  -1272.530226 -24597.188149   9320.798263    323.653979
P  9 -14437.702929  13270.953004  17303.531472    -38.039557
P 10 -23789.282083   -425.926203 -12148.982884     41.979869
P 11  14091.837781 -15301.302952  16431.453322    107.906200
P 13    848.301126 -17154.094744 -20327.221534    -30.020644
P 14  14983.686905  20212.608556   8536.325791    -18.693693
P 15   5568.514078  20637.026453  15375.497230    248.874271
P 16  21468.060932   3525.645321 -15171.974623     13.845249
P 17 -15976.927260   4303.145955 -20416.873548    267.136415
P 18  -8574.167056  16409.958581  18989.083435    -24.118797
P 19  19985.886696   2131.306255  17417.849827    -89.093100
P 20  21341.570019 -13685.514746  -7983.989902   -174.944219
P 21  -5425.988729  25761.961363    771.855140     74.393766
P 22   4995.679778  14441.798296  21881.962017    -16.310985
P 24 -13082.602327  -8166.994625 -21317.905694     16.982083
P 25  10355.971465  17638.188967 -16580.843775     63.830280
P 26 -21159.165514  -4569.308949  15539.026991     11.055388
P 27   4423.663321 -25824.826139  -1635.916891     82.192957
P 28  -4904.536988 -14527.505822  21877.006026     26.710583
P 29 -22539.607896  -7924.275508  11938.438670    236.003087
P 30 -13168.578453  17249.454648 -15473.907077    503.478383
P 31  19584.298142  -1385.702667  17702.554605     78.321483
*  2004  4  5 12 15  0.00000000
P  1  15213.948924  -5876.388759 -20797.497243    337.861098
P  3  23961.704579  10361.925489   5413.183713     99.323889
P  4  -6411.726308 -21863.888903 -13361.371182   -106.862163
P  5 -23334.518328  12492.063013   -352.404007     24.370803
P  6  -7873.774915  13575.830753 -21233.585181     15.735668
P  7 -13848.519809 -19677.132698  11833.735270    583.492346
P  8   -850.840872 -25480.290848   6642.529585    323.642756
P  9 -14371.764531  11102.852754  18817.864616    -38.041157
P 10 -22436.510083  -1090.397832 -14446.994527     41.980352
P 11  14236.709814 -13299.173612  17987.586048    107.908836
P 13   2727.781755 -15717.480902 -21295.239772    -30.020158
P 14  13992.174288  19666.060097  11120.409348    -18.693941
P 15   5003.094899  22230.349987  13207.677162    248.878937
P 16  19805.119370   4370.327666 -17083.053417     13.844833
P 17 -15435.985777   1928.709540 -21239.145924    267.154076
P 18 -10592.240820  16949.279079  17410.771044    -24.121486
P 19  21278.503735   3497.337033  15549.258056    -89.081768
P 20  22123.247256 -13748.925591  -5256.183823   -174.941408
P 21  -5713.242526  25632.352289  -2092.089641     74.394386
P 22   2655.548978  15210.522718  21772.776201    -16.304692
P 24 -12538.142108 -10565.245997 -20582.257632     16.985026
P 25  10022.897651  19473.301506 -14665.050277     63.831456
P 26 -22382.269649  -5713.046502  13384.980180     11.072816
P 27   4715.416203 -25388.102469  -4467.205859     82.222802
P 28  -2605.415294 -15380.385711  21658.679021     26.711674
P 29 -23379.175950  -8773.486930   9412.125972    236.004018
P 30 -14748.646043  17684.937550 -13374.901708    503.488205
P 31  21088.452787    -82.215073  16007.694309     78.344923
*  2004  4  5 12 30  0.00000000
P  1  17063.364028  -4429.606915 -19703.217537    337.863825
P  3  24206.202700  10879.927789   2686.513222     99.325896
P  4  -6031.423366 -23237.793774 -10985.102514   -106.871417
P  5 -23383.434176  12131.218320   2459.987356     24.372790
P  6  -9941.414059  12212.156697 -21206.479332     15.742603
P  7 -12515.240229 -19126.027168  14071.828369    583.482728
P  8   -514.772149 -26072.936443   3847.113491    323.631879
P  9 -14403.472859   8779.901875  19993.034499    -38.042431
P 10 -20898.956724  -1931.036613 -16500.459926     41.979497
P 11  14469.245114 -11148.777445  19232.647026    107.911408
P 13   4757.460495 -14336.074946 -21898.786038    -30.020027
P 14  12741.304425  19013.158125  13513.415872    -18.694268
P 15   4565.026209  23592.439213  10806.749522    248.883852
P 16  18006.748315   5385.633114 -18698.731495     13.844262
P 17 -15006.403290   -535.389808 -21686.187094    267.171858
P 18 -12399.371007  17519.129000  15531.043792    -24.124462
P 19  22462.971829   4655.512305  13413.843453    -89.070430
P 20  22617.207028 -13718.726413  -2438.042383   -174.938566
P 21  -5961.420246  25195.570916  -4919.144319     74.394788
P 22    390.039746  16089.196752  21294.464819    -16.298532
P 24 -12135.547286 -12884.047879 -19482.470450     16.988330
P 25   9782.869911  21086.570264 -12491.015806     63.832598
P 26 -23457.585786  -6633.407628  11004.070633     11.090099
P 27   5020.417345 -24644.377312  -7218.413076     82.252687
P 28   -392.090112 -16334.914895  21073.143415     26.713113
P 29 -24020.037439  -9414.065850   6726.116561    236.004680
P 30 -16085.038629  18085.848628 -11047.537699    503.497658
P 31  22475.452957   1032.366959  14034.702045     78.368496
*  2004  4  5 12 45  0.00000000
P  1  18866.385624  -3164.553517 -18265.202708    337.865261
P  3  24200.996366  11243.919193    -85.816386     99.328133
P  4  -5734.561859 -24348.501928  -8416.366139   -106.880360
P  5 -23183.841673  11601.174388   5229.532715     24.374693
P  6 -12049.527983  10961.557012 -20808.390024     15.749700
P  7 -10951.319544 -18528.285081  16075.272543    583.473359
P  8   -229.584049 -26358.993718    983.952247    323.620562
P  9 -14549.923982   6348.099124  20808.137808    -38.043945
P 10 -19219.544485  -2958.642073 -18274.314004     41.980020
P 11  14803.481837  -8890.730826  20145.427549    107.913584
P 13   6901.688856 -13044.878908 -22127.336144    -30.019789
P 14  11236.146963  18296.273743  15674.360101    -18.694650
P 15   4227.711863  24690.586459   8215.309411    248.888856
P 16  16118.698332   6573.094109 -19990.889774     13.843931
P 17 -14704.051224  -3040.541949 -21752.301139    267.189594
P 18 -13970.106036  18082.196372  13382.014878    -24.127055
P 19  23496.344474   5607.849610  11047.951971    -89.059265
P 20  22831.472385 -13557.805405    422.034068   -174.935594
P 21  -6207.467383  24455.243274  -7659.549951     74.395086
P 22  -1759.241807  17054.139825  20455.134557    -16.292425
P 24 -11866.718160 -15074.368978 -18038.269853     16.990486
P 25   9608.511938  22447.358419 -10097.782176     63.833444
P 26 -24344.990832  -7341.398834   8437.646412     11.108100
P 27   5373.656621 -23605.824418  -9839.663142     82.282384
P 28   1695.806981 -17364.302507  20129.285170     26.714766
P 29 -24426.798097  -9865.880181   3925.671904    236.005408
P 30 -17166.987342  18413.465038  -8531.034499    503.507424
P 31  23704.361957   1961.623159  11818.986392     78.391824
EOF
